STARLINK-3354           
1 51146U 22005AU  26010.22382557 -.00000409  00000+0 -75687-5 0  9991
2 51146  53.2160 201.5950 0001764  87.7971 272.3224 15.08835733219901
STARLINK-3352           
1 51147U 22005AV  26010.95735078  .00027469  00000+0  12292-2 0  9995
2 51147  53.2138 201.6118 0002891 122.2537 237.8741 15.21111151219972
STARLINK-3359           
1 51148U 22005AW  26010.93685062  .00001048  00000+0  83934-4 0  9999
2 51148  53.2164 208.5840 0001317  75.3825 284.7313 15.08830961219877
STARLINK-3360           
1 51149U 22005AX  26010.96255926  .00001502  00000+0  11240-3 0  9990
2 51149  53.2153 208.0851 0001404  79.1094 281.0057 15.08854383219880
STARLINK-3357           
1 51150U 22005AY  26010.50248682  .00004882  00000+0  32448-3 0  9990
2 51150  53.2172 199.9457 0001405  96.0844 264.0308 15.08858350219962
STARLINK-3364           
1 51152U 22005BA  26010.93949852  .00000132  00000+0  26375-4 0  9993
2 51152  53.2159 207.9841 0001414  89.7531 270.3623 15.08840945219880
STARLINK-3181           
1 51461U 22010F   26009.74998693 -.00000810  00000+0 -32827-4 0  9990
2 51461  53.2167 183.7111 0001387  94.9719 265.1431 15.08834548217922
STARLINK-3166           
1 51462U 22010G   26010.47590774 -.00000536  00000+0 -15597-4 0  9991
2 51462  53.2164 180.4627 0001260  84.2923 275.8213 15.08835386218035
STARLINK-3419           
1 51463U 22010H   26010.18422880 -.00000315  00000+0 -16789-5 0  9992
2 51463  53.2176 181.7650 0001453  88.8238 271.2921 15.08836092217683
STARLINK-3189           
1 51464U 22010J   26009.73894528  .00000577  00000+0  54344-4 0  9990
2 51464  53.2169 183.7596 0001247  86.5392 273.5743 15.08847909218423
STARLINK-3401           
1 51465U 22010K   26010.19894593  .00000223  00000+0  32072-4 0  9997
2 51465  53.2171 181.6940 0001278  85.7349 274.3789 15.08837567218499
STARLINK-3178           
1 51467U 22010M   26009.78310986 -.00001097  00000+0 -50874-4 0  9993
2 51467  53.2176 183.5651 0001376  96.8466 263.2683 15.08829842217629
STARLINK-3174           
1 51468U 22010N   26010.18790276 -.00000183  00000+0  66152-5 0  9995
2 51468  53.2166 181.7073 0001374  88.3218 271.7932 15.08836540217686
STARLINK-3182           
1 51469U 22010P   26010.20630454 -.00000457  00000+0 -10604-4 0  9995
2 51469  53.2169 181.6611 0001268  85.3451 274.7686 15.08839327217994
STARLINK-3415           
1 51472U 22010S   26010.18149116  .00000762  00000+0  65976-4 0  9995
2 51472  53.2166 181.7094 0001343  81.1776 278.9368 15.08835989217992
STARLINK-3528           
1 51714U 22016A   26010.58538493 -.00000670  00000+0 -23974-4 0  9996
2 51714  53.2166 229.9392 0001801  89.0722 271.0476 15.08834556214657
