[{"OBJECT_NAME":"STARLINK-3354","OBJECT_ID":"2022-005AU","EPOCH":"2026-01-10T05:22:18.529248","MEAN_MOTION":15.08835733,"ECCENTRICITY":0.00017647,"INCLINATION":53.216,"RA_OF_ASC_NODE":201.595,"ARG_OF_PERICENTER":87.7971,"MEAN_ANOMALY":272.3224,"EPHEMERIS_TYPE":0,"CLASSIFICATION_TYPE":"U","NORAD_CAT_ID":51146,"ELEMENT_SET_NO":999,"REV_AT_EPOCH":21990,"BSTAR":-7.568701e-6,"MEAN_MOTION_DOT":-4.09e-6,"MEAN_MOTION_DDOT":0},{"OBJECT_NAME":"STARLINK-3352","OBJECT_ID":"2022-005AV","EPOCH":"2026-01-10T22:58:35.107392","MEAN_MOTION":15.21111151,"ECCENTRICITY":0.00028918,"INCLINATION":53.2138,"RA_OF_ASC_NODE":201.6118,"ARG_OF_PERICENTER":122.2537,"MEAN_ANOMALY":237.8741,"EPHEMERIS_TYPE":0,"CLASSIFICATION_TYPE":"U","NORAD_CAT_ID":51147,"ELEMENT_SET_NO":999,"REV_AT_EPOCH":21997,"BSTAR":0.0012291854,"MEAN_MOTION_DOT":0.00027469,"MEAN_MOTION_DDOT":0},{"OBJECT_NAME":"STARLINK-3359","OBJECT_ID":"2022-005AW","EPOCH":"2026-01-10T22:29:03.893568","MEAN_MOTION":15.08830961,"ECCENTRICITY":0.00013173,"INCLINATION":53.2164,"RA_OF_ASC_NODE":208.584,"ARG_OF_PERICENTER":75.3825,"MEAN_ANOMALY":284.7313,"EPHEMERIS_TYPE":0,"CLASSIFICATION_TYPE":"U","NORAD_CAT_ID":51148,"ELEMENT_SET_NO":999,"REV_AT_EPOCH":21987,"BSTAR":8.3934436e-5,"MEAN_MOTION_DOT":1.048e-5,"MEAN_MOTION_DDOT":0},{"OBJECT_NAME":"STARLINK-3360","OBJECT_ID":"2022-005AX","EPOCH":"2026-01-10T23:06:05.120064","MEAN_MOTION":15.08854383,"ECCENTRICITY":0.00014042,"INCLINATION":53.2153,"RA_OF_ASC_NODE":208.0851,"ARG_OF_PERICENTER":79.1094,"MEAN_ANOMALY":281.0057,"EPHEMERIS_TYPE":0,"CLASSIFICATION_TYPE":"U","NORAD_CAT_ID":51149,"ELEMENT_SET_NO":999,"REV_AT_EPOCH":21988,"BSTAR":0.00011240135,"MEAN_MOTION_DOT":1.502e-5,"MEAN_MOTION_DDOT":0},{"OBJECT_NAME":"STARLINK-3357","OBJECT_ID":"2022-005AY","EPOCH":"2026-01-10T12:03:34.861248","MEAN_MOTION":15.0885835,"ECCENTRICITY":0.00014055,"INCLINATION":53.2172,"RA_OF_ASC_NODE":199.9457,"ARG_OF_PERICENTER":96.0844,"MEAN_ANOMALY":264.0308,"EPHEMERIS_TYPE":0,"CLASSIFICATION_TYPE":"U","NORAD_CAT_ID":51150,"ELEMENT_SET_NO":999,"REV_AT_EPOCH":21996,"BSTAR":0.00032447689,"MEAN_MOTION_DOT":4.882e-5,"MEAN_MOTION_DDOT":0},{"OBJECT_NAME":"STARLINK-3364","OBJECT_ID":"2022-005BA","EPOCH":"2026-01-10T22:32:52.672128","MEAN_MOTION":15.08840945,"ECCENTRICITY":0.00014145,"INCLINATION":53.2159,"RA_OF_ASC_NODE":207.9841,"ARG_OF_PERICENTER":89.7531,"MEAN_ANOMALY":270.3623,"EPHEMERIS_TYPE":0,"CLASSIFICATION_TYPE":"U","NORAD_CAT_ID":51152,"ELEMENT_SET_NO":999,"REV_AT_EPOCH":21988,"BSTAR":2.6375225e-5,"MEAN_MOTION_DOT":1.32e-6,"MEAN_MOTION_DDOT":0},{"OBJECT_NAME":"STARLINK-3181","OBJECT_ID":"2022-010F","EPOCH":"2026-01-09T17:59:58.870752","MEAN_MOTION":15.08834548,"ECCENTRICITY":0.00013876,"INCLINATION":53.2167,"RA_OF_ASC_NODE":183.7111,"ARG_OF_PERICENTER":94.9719,"MEAN_ANOMALY":265.1431,"EPHEMERIS_TYPE":0,"CLASSIFICATION_TYPE":"U","NORAD_CAT_ID":51461,"ELEMENT_SET_NO":999,"REV_AT_EPOCH":21792,"BSTAR":-3.282657e-5,"MEAN_MOTION_DOT":-8.1e-6,"MEAN_MOTION_DDOT":0},{"OBJECT_NAME":"STARLINK-3166","OBJECT_ID":"2022-010G","EPOCH":"2026-01-10T11:25:18.428736","MEAN_MOTION":15.08835386,"ECCENTRICITY":0.00012604,"INCLINATION":53.2164,"RA_OF_ASC_NODE":180.4627,"ARG_OF_PERICENTER":84.2923,"MEAN_ANOMALY":275.8213,"EPHEMERIS_TYPE":0,"CLASSIFICATION_TYPE":"U","NORAD_CAT_ID":51462,"ELEMENT_SET_NO":999,"REV_AT_EPOCH":21803,"BSTAR":-1.5596874e-5,"MEAN_MOTION_DOT":-5.36e-6,"MEAN_MOTION_DDOT":0},{"OBJECT_NAME":"STARLINK-3419","OBJECT_ID":"2022-010H","EPOCH":"2026-01-10T04:25:17.368320","MEAN_MOTION":15.08836092,"ECCENTRICITY":0.00014538,"INCLINATION":53.2176,"RA_OF_ASC_NODE":181.765,"ARG_OF_PERICENTER":88.8238,"MEAN_ANOMALY":271.2921,"EPHEMERIS_TYPE":0,"CLASSIFICATION_TYPE":"U","NORAD_CAT_ID":51463,"ELEMENT_SET_NO":999,"REV_AT_EPOCH":21768,"BSTAR":-1.678934e-6,"MEAN_MOTION_DOT":-3.15e-6,"MEAN_MOTION_DDOT":0},{"OBJECT_NAME":"STARLINK-3189","OBJECT_ID":"2022-010J","EPOCH":"2026-01-09T17:44:04.872192","MEAN_MOTION":15.08847909,"ECCENTRICITY":0.00012479,"INCLINATION":53.2169,"RA_OF_ASC_NODE":183.7596,"ARG_OF_PERICENTER":86.5392,"MEAN_ANOMALY":273.5743,"EPHEMERIS_TYPE":0,"CLASSIFICATION_TYPE":"U","NORAD_CAT_ID":51464,"ELEMENT_SET_NO":999,"REV_AT_EPOCH":21842,"BSTAR":5.4343629e-5,"MEAN_MOTION_DOT":5.77e-6,"MEAN_MOTION_DDOT":0},{"OBJECT_NAME":"STARLINK-3401","OBJECT_ID":"2022-010K","EPOCH":"2026-01-10T04:46:28.928352","MEAN_MOTION":15.08837567,"ECCENTRICITY":0.00012787,"INCLINATION":53.2171,"RA_OF_ASC_NODE":181.694,"ARG_OF_PERICENTER":85.7349,"MEAN_ANOMALY":274.3789,"EPHEMERIS_TYPE":0,"CLASSIFICATION_TYPE":"U","NORAD_CAT_ID":51465,"ELEMENT_SET_NO":999,"REV_AT_EPOCH":21849,"BSTAR":3.2071972e-5,"MEAN_MOTION_DOT":2.23e-6,"MEAN_MOTION_DDOT":0},{"OBJECT_NAME":"STARLINK-3178","OBJECT_ID":"2022-010M","EPOCH":"2026-01-09T18:47:40.691904","MEAN_MOTION":15.08829842,"ECCENTRICITY":0.00013768,"INCLINATION":53.2176,"RA_OF_ASC_NODE":183.5651,"ARG_OF_PERICENTER":96.8466,"MEAN_ANOMALY":263.2683,"EPHEMERIS_TYPE":0,"CLASSIFICATION_TYPE":"U","NORAD_CAT_ID":51467,"ELEMENT_SET_NO":999,"REV_AT_EPOCH":21762,"BSTAR":-5.0873981e-5,"MEAN_MOTION_DOT":-1.097e-5,"MEAN_MOTION_DDOT":0},{"OBJECT_NAME":"STARLINK-3174","OBJECT_ID":"2022-010N","EPOCH":"2026-01-10T04:30:34.798464","MEAN_MOTION":15.0883654,"ECCENTRICITY":0.00013747,"INCLINATION":53.2166,"RA_OF_ASC_NODE":181.7073,"ARG_OF_PERICENTER":88.3218,"MEAN_ANOMALY":271.7932,"EPHEMERIS_TYPE":0,"CLASSIFICATION_TYPE":"U","NORAD_CAT_ID":51468,"ELEMENT_SET_NO":999,"REV_AT_EPOCH":21768,"BSTAR":6.615228e-6,"MEAN_MOTION_DOT":-1.83e-6,"MEAN_MOTION_DDOT":0},{"OBJECT_NAME":"STARLINK-3182","OBJECT_ID":"2022-010P","EPOCH":"2026-01-10T04:57:04.712256","MEAN_MOTION":15.08839327,"ECCENTRICITY":0.00012688,"INCLINATION":53.2169,"RA_OF_ASC_NODE":181.6611,"ARG_OF_PERICENTER":85.3451,"MEAN_ANOMALY":274.7686,"EPHEMERIS_TYPE":0,"CLASSIFICATION_TYPE":"U","NORAD_CAT_ID":51469,"ELEMENT_SET_NO":999,"REV_AT_EPOCH":21799,"BSTAR":-1.0604023e-5,"MEAN_MOTION_DOT":-4.57e-6,"MEAN_MOTION_DDOT":0},{"OBJECT_NAME":"STARLINK-3415","OBJECT_ID":"2022-010S","EPOCH":"2026-01-10T04:21:20.836224","MEAN_MOTION":15.08835989,"ECCENTRICITY":0.00013433,"INCLINATION":53.2166,"RA_OF_ASC_NODE":181.7094,"ARG_OF_PERICENTER":81.1776,"MEAN_ANOMALY":278.9368,"EPHEMERIS_TYPE":0,"CLASSIFICATION_TYPE":"U","NORAD_CAT_ID":51472,"ELEMENT_SET_NO":999,"REV_AT_EPOCH":21799,"BSTAR":6.5975507e-5,"MEAN_MOTION_DOT":7.62e-6,"MEAN_MOTION_DDOT":0},{"OBJECT_NAME":"STARLINK-3528","OBJECT_ID":"2022-016A","EPOCH":"2026-01-10T14:02:57.257952","MEAN_MOTION":15.08834556,"ECCENTRICITY":0.0001801,"INCLINATION":53.2166,"RA_OF_ASC_NODE":229.9392,"ARG_OF_PERICENTER":89.0722,"MEAN_ANOMALY":271.0476,"EPHEMERIS_TYPE":0,"CLASSIFICATION_TYPE":"U","NORAD_CAT_ID":51714,"ELEMENT_SET_NO":999,"REV_AT_EPOCH":21465,"BSTAR":-2.397363e-5,"MEAN_MOTION_DOT":-6.7e-6,"MEAN_MOTION_DDOT":0}]
